{
  "type": "FeatureCollection",
  "features": [
    {
      "type": "Feature",
      "properties": {
        "norad_id": 56564,
        "name": "BEIDOU-3 G4 (C62)",
        "group": "beidou",
        "lat": -0.6848207566135653,
        "lon": -179.80883322831278,
        "alt_km": 35774.87508777125,
        "timestamp": "2025-12-18T19:29:52.809986+00:00",
        "meta_object_name": "BEIDOU-3 G4 (C62)",
        "meta_object_id": "2023-066A",
        "meta_epoch": "2025-12-18T05:29:48.091776",
        "meta_mean_motion": 1.00271695,
        "meta_eccentricity": 0.00027503,
        "meta_inclination": 0.8034,
        "meta_ra_of_asc_node": 302.4816,
        "meta_arg_of_pericenter": 226.9983,
        "meta_mean_anomaly": 160.1273,
        "meta_ephemeris_type": 0,
        "meta_classification_type": "U",
        "meta_norad_cat_id": 56564,
        "meta_element_set_no": 999,
        "meta_rev_at_epoch": 958,
        "meta_bstar": 0,
        "meta_mean_motion_dot": -8.5e-07,
        "meta_mean_motion_ddot": 0,
        "tle_line1": "1 56564U 23066A   25352.22902884 -.00000085  00000+0  00000+0 0  9997",
        "tle_line2": "2 56564   0.8034 302.4816 0002750 226.9983 160.1273  1.00271695  9583"
      },
      "geometry": {
        "type": "Point",
        "coordinates": [
          -179.80883322831278,
          -0.6848207566135653
        ]
      }
    },
    {
      "type": "Feature",
      "properties": {
        "norad_id": 58654,
        "name": "BEIDOU-3 M28 (C50)",
        "group": "beidou",
        "lat": -36.66145474294101,
        "lon": 37.78660306412159,
        "alt_km": 21527.1793793153,
        "timestamp": "2025-12-18T19:29:52.809997+00:00",
        "meta_object_name": "BEIDOU-3 M28 (C50)",
        "meta_object_id": "2023-207A",
        "meta_epoch": "2025-12-18T08:16:11.726688",
        "meta_mean_motion": 1.86229841,
        "meta_eccentricity": 0.00026244,
        "meta_inclination": 55.5892,
        "meta_ra_of_asc_node": 68.4116,
        "meta_arg_of_pericenter": 272.1246,
        "meta_mean_anomaly": 87.875,
        "meta_ephemeris_type": 0,
        "meta_classification_type": "U",
        "meta_norad_cat_id": 58654,
        "meta_element_set_no": 999,
        "meta_rev_at_epoch": 1347,
        "meta_bstar": 0,
        "meta_mean_motion_dot": -6.6e-07,
        "meta_mean_motion_ddot": 0,
        "tle_line1": "1 58654U 23207A   25352.34458017 -.00000066  00000+0  00000+0 0  9992",
        "tle_line2": "2 58654  55.5892  68.4116 0002624 272.1246  87.8750  1.86229841 13479"
      },
      "geometry": {
        "type": "Point",
        "coordinates": [
          37.78660306412159,
          -36.66145474294101
        ]
      }
    },
    {
      "type": "Feature",
      "properties": {
        "norad_id": 58655,
        "name": "BEIDOU-3 M26 (C48)",
        "group": "beidou",
        "lat": 55.609886214332604,
        "lon": 157.212926211841,
        "alt_km": 21532.585792037622,
        "timestamp": "2025-12-18T19:29:52.810008+00:00",
        "meta_object_name": "BEIDOU-3 M26 (C48)",
        "meta_object_id": "2023-207B",
        "meta_epoch": "2025-12-17T14:31:30.894816",
        "meta_mean_motion": 1.86231346,
        "meta_eccentricity": 0.0004016,
        "meta_inclination": 55.5906,
        "meta_ra_of_asc_node": 68.4229,
        "meta_arg_of_pericenter": 258.0544,
        "meta_mean_anomaly": 101.9267,
        "meta_ephemeris_type": 0,
        "meta_classification_type": "U",
        "meta_norad_cat_id": 58655,
        "meta_element_set_no": 999,
        "meta_rev_at_epoch": 1344,
        "meta_bstar": 0,
        "meta_mean_motion_dot": -7.2e-07,
        "meta_mean_motion_ddot": 0,
        "tle_line1": "1 58655U 23207B   25351.60521869 -.00000072  00000+0  00000+0 0  9994",
        "tle_line2": "2 58655  55.5906  68.4229 0004016 258.0544 101.9267  1.86231346 13443"
      },
      "geometry": {
        "type": "Point",
        "coordinates": [
          157.212926211841,
          55.609886214332604
        ]
      }
    },
    {
      "type": "Feature",
      "properties": {
        "norad_id": 61186,
        "name": "BEIDOU-3 M25 (C47)",
        "group": "beidou",
        "lat": -21.127893595103416,
        "lon": 144.39966354712325,
        "alt_km": 21531.73960461062,
        "timestamp": "2025-12-18T19:29:52.810019+00:00",
        "meta_object_name": "BEIDOU-3 M25 (C47)",
        "meta_object_id": "2024-168B",
        "meta_epoch": "2025-12-18T00:39:01.420992",
        "meta_mean_motion": 1.86230296,
        "meta_eccentricity": 0.00054425,
        "meta_inclination": 54.6373,
        "meta_ra_of_asc_node": 308.537,
        "meta_arg_of_pericenter": 299.044,
        "meta_mean_anomaly": 100.6746,
        "meta_ephemeris_type": 0,
        "meta_classification_type": "U",
        "meta_norad_cat_id": 61186,
        "meta_element_set_no": 999,
        "meta_rev_at_epoch": 841,
        "meta_bstar": 0,
        "meta_mean_motion_dot": -8.7e-07,
        "meta_mean_motion_ddot": 0,
        "tle_line1": "1 61186U 24168B   25352.02709978 -.00000087  00000+0  00000+0 0  9996",
        "tle_line2": "2 61186  54.6373 308.5370 0005442 299.0440 100.6746  1.86230296  8415"
      },
      "geometry": {
        "type": "Point",
        "coordinates": [
          144.39966354712325,
          -21.127893595103416
        ]
      }
    },
    {
      "type": "Feature",
      "properties": {
        "norad_id": 61187,
        "name": "BEIDOU-3 M27 (C49)",
        "group": "beidou",
        "lat": -15.242555593535526,
        "lon": -62.6811829192491,
        "alt_km": 21523.328810350882,
        "timestamp": "2025-12-18T19:29:52.810030+00:00",
        "meta_object_name": "BEIDOU-3 M27 (C49)",
        "meta_object_id": "2024-168C",
        "meta_epoch": "2025-12-17T09:44:22.026336",
        "meta_mean_motion": 1.86230445,
        "meta_eccentricity": 0.00024936,
        "meta_inclination": 54.6333,
        "meta_ra_of_asc_node": 308.542,
        "meta_arg_of_pericenter": 338.9889,
        "meta_mean_anomaly": 139.133,
        "meta_ephemeris_type": 0,
        "meta_classification_type": "U",
        "meta_norad_cat_id": 61187,
        "meta_element_set_no": 999,
        "meta_rev_at_epoch": 587,
        "meta_bstar": 0,
        "meta_mean_motion_dot": -9.1e-07,
        "meta_mean_motion_ddot": 0,
        "tle_line1": "1 61187U 24168C   25351.40581049 -.00000091  00000+0  00000+0 0  9990",
        "tle_line2": "2 61187  54.6333 308.5420 0002493 338.9889 139.1330  1.86230445  5870"
      },
      "geometry": {
        "type": "Point",
        "coordinates": [
          -62.6811829192491,
          -15.242555593535526
        ]
      }
    }
  ]
}